0 SL-6 R/B(2)
1 20599U 90040D   13283.10047734 -.00000143  00000-0  00000+0 0  7560
2 20599 068.7411 005.1583 6038103 171.1847 214.5974 02.03490148174281
0 SL-6 R/B(2)
1 20599U 90040D   13285.48928703 -.00000462  00000-0  00000+0 0  7572
2 20599 068.7434 005.0044 6037758 171.1215 164.5437 02.03492024174330
0 SL-6 R/B(2)
1 20599U 90040D   13288.03590579 -.00000680  00000-0  00000+0 0  7585
2 20599 068.7456 004.8410 6037406 171.0544 230.1032 02.03492312174388
0 SL-6 R/B(2)
1 20599U 90040D   13290.46386862  .00000069  00000-0  10000-3 0  7601
2 20599 068.8130 004.6918 6037581 170.9903 208.7301 02.03488287174432
0 SL-6 R/B(2)
1 20599U 90040D   13290.47950980 -.00000741  00000-0  00000+0 0  7591
2 20599 068.7469 004.6846 6037038 170.9900 220.1935 02.03490860174431
0 SL-6 R/B(2)
1 20599U 90040D   13292.79220846 -.00000709  00000-0  00000+0 0  7605
2 20599 068.7479 004.5368 6036690 170.9292 114.3739 02.03488214174488
0 SL-6 R/B(2)
1 20599U 90040D   13295.40016248 -.00000602  00000-0  00000+0 0  7618
2 20599 068.7496 004.3703 6036311 170.8606 224.8189 02.03484583174533
